{"type": "FeatureCollection", "features": [ {"type": "Feature", "properties": {"norad_id": 66897, "name": "STARLINK-36079", "group": "last-30-days", "lat": -53.11445653457317, "lon": -48.522544866148955, "alt_km": 351.5834539344896, "timestamp": "2025-12-19T14:48:34.965940+00:00", "meta": {"OBJECT_NAME": "STARLINK-36079", "OBJECT_ID": "2025-283V", "EPOCH": "2025-12-19T06:00:02.000160", "MEAN_MOTION": 15.75767241, "ECCENTRICITY": 8.324e-05, "INCLINATION": 53.1561, "RA_OF_ASC_NODE": 41.0338, "ARG_OF_PERICENTER": 101.7667, "MEAN_ANOMALY": 247.0565, "EPHEMERIS_TYPE": 0, "CLASSIFICATION_TYPE": "U", "NORAD_CAT_ID": 66897, "ELEMENT_SET_NO": 999, "REV_AT_EPOCH": 347, "BSTAR": -0.011371237, "MEAN_MOTION_DOT": -0.01560599, "MEAN_MOTION_DDOT": 0}, "tle": {"line1": "1 66897U 25283V   25353.25002315 -.01560599  00000+0 -11371-1 0  9992", "line2": "2 66897  53.1561  41.0338 0000832 101.7667 247.0565 15.75767241  3477"}}, "geometry": {"type": "Point", "coordinates": [-48.522544866148955, -53.11445653457317]}}, {"type": "Feature", "properties": {"norad_id": 66898, "name": "STARLINK-36065", "group": "last-30-days", "lat": -53.00761915972699, "lon": -45.27374896028638, "alt_km": 351.7545527136035, "timestamp": "2025-12-19T14:48:34.965951+00:00", "meta": {"OBJECT_NAME": "STARLINK-36065", "OBJECT_ID": "2025-283W", "EPOCH": "2025-12-19T06:00:02.000160", "MEAN_MOTION": 15.75702186, "ECCENTRICITY": 5.788e-05, "INCLINATION": 53.1557, "RA_OF_ASC_NODE": 41.0287, "ARG_OF_PERICENTER": 78.2699, "MEAN_ANOMALY": 272.6518, "EPHEMERIS_TYPE": 0, "CLASSIFICATION_TYPE": "U", "NORAD_CAT_ID": 66898, "ELEMENT_SET_NO": 999, "REV_AT_EPOCH": 347, "BSTAR": -0.012034452, "MEAN_MOTION_DOT": -0.01668537, "MEAN_MOTION_DDOT": 0}, "tle": {"line1": "1 66898U 25283W   25353.25002315 -.01668537  00000+0 -12034-1 0  9991", "line2": "2 66898  53.1557  41.0287 0000578  78.2699 272.6518 15.75702186  3475"}}, "geometry": {"type": "Point", "coordinates": [-45.27374896028638, -53.00761915972699]}}, {"type": "Feature", "properties": {"norad_id": 66899, "name": "STARLINK-36064", "group": "last-30-days", "lat": -52.81712616387959, "lon": -42.10340810056236, "alt_km": 352.3847176692907, "timestamp": "2025-12-19T14:48:34.965961+00:00", "meta": {"OBJECT_NAME": "STARLINK-36064", "OBJECT_ID": "2025-283X", "EPOCH": "2025-12-19T06:00:02.000160", "MEAN_MOTION": 15.75539349, "ECCENTRICITY": 0.00011193, "INCLINATION": 53.1557, "RA_OF_ASC_NODE": 41.0244, "ARG_OF_PERICENTER": 82.594, "MEAN_ANOMALY": 270.4149, "EPHEMERIS_TYPE": 0, "CLASSIFICATION_TYPE": "U", "NORAD_CAT_ID": 66899, "ELEMENT_SET_NO": 999, "REV_AT_EPOCH": 341, "BSTAR": -0.011374159, "MEAN_MOTION_DOT": -0.01547439, "MEAN_MOTION_DDOT": 0}, "tle": {"line1": "1 66899U 25283X   25353.25002315 -.01547439  00000+0 -11374-1 0  9995", "line2": "2 66899  53.1557  41.0244 0001119  82.5940 270.4149 15.75539349  3417"}}, "geometry": {"type": "Point", "coordinates": [-42.10340810056236, -52.81712616387959]}}, {"type": "Feature", "properties": {"norad_id": 66900, "name": "STARLINK-36074", "group": "last-30-days", "lat": -52.54385904478539, "lon": -38.97341932736499, "alt_km": 352.38409736903213, "timestamp": "2025-12-19T14:48:34.965973+00:00", "meta": {"OBJECT_NAME": "STARLINK-36074", "OBJECT_ID": "2025-283Y", "EPOCH": "2025-12-19T06:00:02.000160", "MEAN_MOTION": 15.75368433, "ECCENTRICITY": 7.631e-05, "INCLINATION": 53.1561, "RA_OF_ASC_NODE": 41.02, "ARG_OF_PERICENTER": 104.6018, "MEAN_ANOMALY": 250.499, "EPHEMERIS_TYPE": 0, "CLASSIFICATION_TYPE": "U", "NORAD_CAT_ID": 66900, "ELEMENT_SET_NO": 999, "REV_AT_EPOCH": 347, "BSTAR": -0.010698265, "MEAN_MOTION_DOT": -0.01456531, "MEAN_MOTION_DDOT": 0}, "tle": {"line1": "1 66900U 25283Y   25353.25002315 -.01456531  00000+0 -10698-1 0  9998", "line2": "2 66900  53.1561  41.0200 0000763 104.6018 250.4990 15.75368433  3475"}}, "geometry": {"type": "Point", "coordinates": [-38.97341932736499, -52.54385904478539]}}, {"type": "Feature", "properties": {"norad_id": 66901, "name": "STARLINK-36043", "group": "last-30-days", "lat": -52.187984013340994, "lon": -35.88454774291774, "alt_km": 352.46520351565414, "timestamp": "2025-12-19T14:48:34.965983+00:00", "meta": {"OBJECT_NAME": "STARLINK-36043", "OBJECT_ID": "2025-283Z", "EPOCH": "2025-12-19T06:00:02.000160", "MEAN_MOTION": 15.75230648, "ECCENTRICITY": 8.397e-05, "INCLINATION": 53.156, "RA_OF_ASC_NODE": 41.0156, "ARG_OF_PERICENTER": 94.9396, "MEAN_ANOMALY": 262.1923, "EPHEMERIS_TYPE": 0, "CLASSIFICATION_TYPE": "U", "NORAD_CAT_ID": 66901, "ELEMENT_SET_NO": 999, "REV_AT_EPOCH": 347, "BSTAR": -0.0096678406, "MEAN_MOTION_DOT": -0.01324121, "MEAN_MOTION_DDOT": 0}, "tle": {"line1": "1 66901U 25283Z   25353.25002315 -.01324121  00000+0 -96678-2 0  9991", "line2": "2 66901  53.1560  41.0156 0000839  94.9396 262.1923 15.75230648  3471"}}, "geometry": {"type": "Point", "coordinates": [-35.88454774291774, -52.187984013340994]}}, {"type": "Feature", "properties": {"norad_id": 66902, "name": "STARLINK-35983", "group": "last-30-days", "lat": -51.75422843238682, "lon": -32.858215247416716, "alt_km": 352.70233876717884, "timestamp": "2025-12-19T14:48:34.965995+00:00", "meta": {"OBJECT_NAME": "STARLINK-35983", "OBJECT_ID": "2025-283AA", "EPOCH": "2025-12-19T06:00:02.000160", "MEAN_MOTION": 15.75017596, "ECCENTRICITY": 0.00010566, "INCLINATION": 53.1562, "RA_OF_ASC_NODE": 41.0114, "ARG_OF_PERICENTER": 100.1365, "MEAN_ANOMALY": 259.0793, "EPHEMERIS_TYPE": 0, "CLASSIFICATION_TYPE": "U", "NORAD_CAT_ID": 66902, "ELEMENT_SET_NO": 999, "REV_AT_EPOCH": 347, "BSTAR": -0.0081307455, "MEAN_MOTION_DOT": -0.01105609, "MEAN_MOTION_DDOT": 0}, "tle": {"line1": "1 66902U 25283AA  25353.25002315 -.01105609  00000+0 -81307-2 0  9993", "line2": "2 66902  53.1562  41.0114 0001056 100.1365 259.0793 15.75017596  3471"}}, "geometry": {"type": "Point", "coordinates": [-32.858215247416716, -51.75422843238682]}}, {"type": "Feature", "properties": {"norad_id": 66903, "name": "STARLINK-36077", "group": "last-30-days", "lat": -51.2434887084958, "lon": -29.893119231001528, "alt_km": 352.6910928368443, "timestamp": "2025-12-19T14:48:34.966006+00:00", "meta": {"OBJECT_NAME": "STARLINK-36077", "OBJECT_ID": "2025-283AB", "EPOCH": "2025-12-19T06:00:02.000160", "MEAN_MOTION": 15.74949102, "ECCENTRICITY": 8.996e-05, "INCLINATION": 53.156, "RA_OF_ASC_NODE": 41.0076, "ARG_OF_PERICENTER": 100.9646, "MEAN_ANOMALY": 260.245, "EPHEMERIS_TYPE": 0, "CLASSIFICATION_TYPE": "U", "NORAD_CAT_ID": 66903, "ELEMENT_SET_NO": 999, "REV_AT_EPOCH": 347, "BSTAR": -0.0078956567, "MEAN_MOTION_DOT": -0.01073906, "MEAN_MOTION_DDOT": 0}, "tle": {"line1": "1 66903U 25283AB  25353.25002315 -.01073906  00000+0 -78957-2 0  9995", "line2": "2 66903  53.1560  41.0076 0000899 100.9646 260.2450 15.74949102  3471"}}, "geometry": {"type": "Point", "coordinates": [-29.893119231001528, -51.2434887084958]}}, {"type": "Feature", "properties": {"norad_id": 66904, "name": "STARLINK-36059", "group": "last-30-days", "lat": -50.66400094446708, "lon": -27.0198247078282, "alt_km": 352.49559695607604, "timestamp": "2025-12-19T14:48:34.966016+00:00", "meta": {"OBJECT_NAME": "STARLINK-36059", "OBJECT_ID": "2025-283AC", "EPOCH": "2025-12-19T06:00:02.000160", "MEAN_MOTION": 15.74770175, "ECCENTRICITY": 7.794e-05, "INCLINATION": 53.1558, "RA_OF_ASC_NODE": 41.0031, "ARG_OF_PERICENTER": 92.2123, "MEAN_ANOMALY": 271.0096, "EPHEMERIS_TYPE": 0, "CLASSIFICATION_TYPE": "U", "NORAD_CAT_ID": 66904, "ELEMENT_SET_NO": 999, "REV_AT_EPOCH": 347, "BSTAR": -0.0060978347, "MEAN_MOTION_DOT": -0.00831103, "MEAN_MOTION_DDOT": 0}, "tle": {"line1": "1 66904U 25283AC  25353.25002315 -.00831103  00000+0 -60978-2 0  9990", "line2": "2 66904  53.1558  41.0031 0000779  92.2123 271.0096 15.74770175  3478"}}, "geometry": {"type": "Point", "coordinates": [-27.0198247078282, -50.66400094446708]}}, {"type": "Feature", "properties": {"norad_id": 66905, "name": "STARLINK-36075", "group": "last-30-days", "lat": -50.01421599241883, "lon": -24.214198470320504, "alt_km": 352.52698013154713, "timestamp": "2025-12-19T14:48:34.966026+00:00", "meta": {"OBJECT_NAME": "STARLINK-36075", "OBJECT_ID": "2025-283AD", "EPOCH": "2025-12-19T06:00:02.000160", "MEAN_MOTION": 15.74707649, "ECCENTRICITY": 7.757e-05, "INCLINATION": 53.1559, "RA_OF_ASC_NODE": 40.999, "ARG_OF_PERICENTER": 93.9253, "MEAN_ANOMALY": 271.2615, "EPHEMERIS_TYPE": 0, "CLASSIFICATION_TYPE": "U", "NORAD_CAT_ID": 66905, "ELEMENT_SET_NO": 999, "REV_AT_EPOCH": 347, "BSTAR": -0.005714876, "MEAN_MOTION_DOT": -0.00781451, "MEAN_MOTION_DDOT": 0}, "tle": {"line1": "1 66905U 25283AD  25353.25002315 -.00781451  00000+0 -57149-2 0  9997", "line2": "2 66905  53.1559  40.9990 0000775  93.9253 271.2615 15.74707649  3475"}}, "geometry": {"type": "Point", "coordinates": [-24.214198470320504, -50.01421599241883]}}, {"type": "Feature", "properties": {"norad_id": 66906, "name": "1998-067XS", "group": "last-30-days", "lat": -31.572052603273878, "lon": 79.164334661767, "alt_km": 417.5609473149998, "timestamp": "2025-12-19T14:48:34.966036+00:00", "meta": {"OBJECT_NAME": "1998-067XS", "OBJECT_ID": "1998-067XS", "EPOCH": "2025-12-18T14:14:47.325984", "MEAN_MOTION": 15.50877887, "ECCENTRICITY": 0.00030668, "INCLINATION": 51.6311, "RA_OF_ASC_NODE": 113.3804, "ARG_OF_PERICENTER": 230.517, "MEAN_ANOMALY": 129.5548, "EPHEMERIS_TYPE": 0, "CLASSIFICATION_TYPE": "U", "NORAD_CAT_ID": 66906, "ELEMENT_SET_NO": 999, "REV_AT_EPOCH": 252, "BSTAR": 0.00040765177, "MEAN_MOTION_DOT": 0.00023614, "MEAN_MOTION_DDOT": 0}, "tle": {"line1": "1 66906U 98067XS  25352.59360331  .00023614  00000+0  40765-3 0  9994", "line2": "2 66906  51.6311 113.3804 0003066 230.5170 129.5548 15.50877887  2528"}}, "geometry": {"type": "Point", "coordinates": [79.164334661767, -31.572052603273878]}}]}